STARLINK-2711
1 28673C 21044AM  21325.13784888  .00000401  00000-0  26887-4 0  3252
2 28673  53.0543 317.5998 0002084  60.2328  61.4845 15.06401527    17
